STARLINK-30285          
1 57840U 23141A   26194.84611463  .00001593  00000+0  63061-4 0  9997
2 57840  53.1600  57.3875 0001070  96.3137 263.7986 15.31710228159650
STARLINK-30410          
1 57841U 23141B   26194.85543296 -.00002050  00000+0 -54294-4 0  9996
2 57841  53.1589  57.2569 0001658 113.6950 246.4226 15.31706749159652
STARLINK-30435          
1 57842U 23141C   26194.87410346 -.00000255  00000+0  35565-5 0  9993
2 57842  53.1597  57.4054 0001357  88.7593 271.3564 15.31698967159658
STARLINK-30423          
1 57843U 23141D   26194.86476358  .00001429  00000+0  57805-4 0  9991
2 57843  53.1595  57.3042 0001227  79.0651 281.0488 15.31702901159654
STARLINK-30292          
1 57844U 23141E   26194.87898486 -.00000480  00000+0 -40934-5 0  9997
2 57844  53.1600  57.6039 0001465  77.3161 282.8004 15.30190702159654
STARLINK-30416          
1 57847U 23141H   26194.86011948  .00003923  00000+0  13808-3 0  9990
2 57847  53.1605  57.4478 0001248  79.0124 281.1018 15.31705222159651
STARLINK-30426          
1 57848U 23141J   26194.87484066 -.00000358  00000+0  51871-7 0  9993
2 57848  53.1605  58.0307 0001706 117.4868 242.6306 15.30185699159641
STARLINK-30430          
1 57849U 23141K   26194.86946102 -.00000723  00000+0 -11533-4 0  9992
2 57849  53.1601  57.5463 0001464  71.1998 288.9162 15.31697401159650
STARLINK-30425          
1 57850U 23141L   26194.87800149 -.00009723  00000+0 -31641-3 0  9995
2 57850  53.1599  58.0649 0001108  91.2543 268.8584 15.30217131159645
STARLINK-30405          
1 57851U 23141M   26194.85077987 -.00000040  00000+0  10475-4 0  9995
2 57851  53.1610  57.3733 0001428 110.3469 249.7686 15.31703607159652
STARLINK-30431          
1 57852U 23141N   26194.88426554 -.00001468  00000+0 -37439-4 0  9992
2 57852  53.1604  57.6306 0001589  58.1012 302.0143 15.30186583159643
STARLINK-30404          
1 57853U 23141P   26194.81472000  .00001729  00000+0  70542-4 0  9993
2 57853  53.1596  57.9075 0001315  85.4749 274.6402 15.30177662159647
STARLINK-30412          
1 57854U 23141Q   26194.89056757 -.00000607  00000+0 -83617-5 0  9993
2 57854  53.1606  57.6684 0001437  94.1090 266.0075 15.30226442159657
STARLINK-30392          
1 57855U 23141R   26193.90769769  .00002516  00000+0  97092-4 0  9999
2 57855  53.1601  62.1999 0001475  77.7880 282.3286 15.30182149159503
STARLINK-30291          
1 57856U 23141S   26194.83678447  .00001197  00000+0  50322-4 0  9994
2 57856  53.1595  57.3373 0001420  94.8614 265.2549 15.31702199159655
STARLINK-30424          
1 57857U 23141T   26194.83002605  .00001541  00000+0  61408-4 0  9992
2 57857  53.1627  32.0313 0001293  90.2447 269.8703 15.31709864160007
STARLINK-30290          
1 57858U 23141U   26194.83160411  .00003250  00000+0  12181-3 0  9995
2 57858  53.1601  58.0152 0001361  71.1368 288.9781 15.30200406159648
STARLINK-30414          
1 57859U 23141V   26194.82844369 -.00000419  00000+0 -20103-5 0  9997
2 57859  53.1615  57.9932 0001421  98.8550 261.2612 15.30191490159643
STARLINK-30272          
1 57860U 23141W   26194.84148465  .00038011  00000+0  12332-2 0  9994
2 57860  53.1590  57.3628 0001977 111.3138 248.8074 15.31626565159653
STARLINK-30432          
1 57864U 23144A   26194.32622581  .00000417  00000+0  24663-4 0  9991
2 57864  43.0023 295.5345 0001124 266.8965  93.1758 15.27577633156817
STARLINK-30427          
1 57865U 23144B   26194.26469233  .00000929  00000+0  43259-4 0  9998
2 57865  43.0022 295.9251 0000979 260.2069  99.8672 15.27580048156808
STARLINK-30393          
1 57866U 23144C   26194.31851233  .00000246  00000+0  18457-4 0  9994
2 57866  42.9958 295.4603 0001764 175.4697 184.6171 15.27579130156816
STARLINK-30439          
1 57867U 23144D   26194.33393580  .00007963  00000+0  29850-3 0  9994
2 57867  43.0008 295.5849 0001045 236.8960 123.1791 15.27587677156861
STARLINK-30442          
1 57868U 23144E   26194.33778081  .00000605  00000+0  31518-4 0  9999
2 57868  43.0027 295.5715 0001083 241.5545 118.5198 15.27582529156814
STARLINK-30441          
1 57869U 23144F   26194.32235977  .00001386  00000+0  59902-4 0  9995
2 57869  43.0031 295.4582 0001112 248.9971 111.0761 15.27576923156813
STARLINK-30460          
1 57870U 23144G   26194.60190132  .00000730  00000+0  36050-4 0  9992
2 57870  43.0031 294.1567 0001482 265.8704  94.1978 15.27583131156906
STARLINK-30444          
1 57871U 23144H   26194.60961161  .00008900  00000+0  33241-3 0  9996
2 57871  43.0033 294.2172 0001753 269.6698  90.3953 15.27595303156610
STARLINK-30446          
1 57872U 23144J   26194.56147574 -.00003004  00000+0 -99597-4 0  9995
2 57872  43.0052 280.2275 0002305 288.0660  71.9941 15.27596936156782
STARLINK-30445          
1 57873U 23144K   26194.60575780  .00001010  00000+0  46215-4 0  9997
2 57873  43.0026 294.1887 0001328 247.7576 112.3135 15.27582406156859
STARLINK-30447          
1 57874U 23144L   26194.23577736 -.00000286  00000+0 -89085-6 0  9990
2 57874  43.0012 270.4395 0001054 254.0944 105.9792 15.27580797157132
