OBJECT_NAME,OBJECT_ID,EPOCH,MEAN_MOTION,ECCENTRICITY,INCLINATION,RA_OF_ASC_NODE,ARG_OF_PERICENTER,MEAN_ANOMALY,EPHEMERIS_TYPE,CLASSIFICATION_TYPE,NORAD_CAT_ID,ELEMENT_SET_NO,REV_AT_EPOCH,BSTAR,MEAN_MOTION_DOT,MEAN_MOTION_DDOT
STARLINK-30285,2023-141A,2026-07-13T20:18:24.304032,15.31710228,.000107,53.1600,57.3875,96.3137,263.7986,0,U,57840,999,15965,.63061E-4,.1593E-4,0
STARLINK-30410,2023-141B,2026-07-13T20:31:49.407744,15.31706749,.0001658,53.1589,57.2569,113.6950,246.4226,0,U,57841,999,15965,-.54294E-4,-.205E-4,0
STARLINK-30435,2023-141C,2026-07-13T20:58:42.538944,15.31698967,.0001357,53.1597,57.4054,88.7593,271.3564,0,U,57842,999,15965,.35565E-5,-.255E-5,0
STARLINK-30423,2023-141D,2026-07-13T20:45:15.573312,15.31702901,.0001227,53.1595,57.3042,79.0651,281.0488,0,U,57843,999,15965,.57805E-4,.1429E-4,0
STARLINK-30292,2023-141E,2026-07-13T21:05:44.291904,15.30190702,.0001465,53.1600,57.6039,77.3161,282.8004,0,U,57844,999,15965,-.40934E-5,-.48E-5,0
STARLINK-30416,2023-141H,2026-07-13T20:38:34.323072,15.31705222,.0001248,53.1605,57.4478,79.0124,281.1018,0,U,57847,999,15965,.13808E-3,.3923E-4,0
STARLINK-30426,2023-141J,2026-07-13T20:59:46.233024,15.30185699,.0001706,53.1605,58.0307,117.4868,242.6306,0,U,57848,999,15964,.51871E-7,-.358E-5,0
STARLINK-30430,2023-141K,2026-07-13T20:52:01.432128,15.31697401,.0001464,53.1601,57.5463,71.1998,288.9162,0,U,57849,999,15965,-.11533E-4,-.723E-5,0
STARLINK-30425,2023-141L,2026-07-13T21:04:19.328736,15.30217131,.0001108,53.1599,58.0649,91.2543,268.8584,0,U,57850,999,15964,-.31641E-3,-.9723E-4,0
STARLINK-30405,2023-141M,2026-07-13T20:25:07.380768,15.31703607,.0001428,53.1610,57.3733,110.3469,249.7686,0,U,57851,999,15965,.10475E-4,-.4E-6,0
STARLINK-30431,2023-141N,2026-07-13T21:13:20.542656,15.30186583,.0001589,53.1604,57.6306,58.1012,302.0143,0,U,57852,999,15964,-.37439E-4,-.1468E-4,0
STARLINK-30404,2023-141P,2026-07-13T19:33:11.808000,15.30177662,.0001315,53.1596,57.9075,85.4749,274.6402,0,U,57853,999,15964,.70542E-4,.1729E-4,0
STARLINK-30412,2023-141Q,2026-07-13T21:22:25.038048,15.30226442,.0001437,53.1606,57.6684,94.1090,266.0075,0,U,57854,999,15965,-.83617E-5,-.607E-5,0
STARLINK-30392,2023-141R,2026-07-12T21:47:05.080416,15.30182149,.00014759,53.1601,62.1999,77.7880,282.3286,0,U,57855,999,15950,.97091832E-4,.2516E-4,0
STARLINK-30291,2023-141S,2026-07-13T20:04:58.178208,15.31702199,.000142,53.1595,57.3373,94.8614,265.2549,0,U,57856,999,15965,.50322E-4,.1197E-4,0
STARLINK-30424,2023-141T,2026-07-13T19:55:14.250720,15.31709864,.0001293,53.1627,32.0313,90.2447,269.8703,0,U,57857,999,16000,.61408E-4,.1541E-4,0
STARLINK-30290,2023-141U,2026-07-13T19:57:30.595104,15.30200406,.0001361,53.1601,58.0152,71.1368,288.9781,0,U,57858,999,15964,.12181E-3,.325E-4,0
STARLINK-30414,2023-141V,2026-07-13T19:52:57.534816,15.30191490,.0001421,53.1615,57.9932,98.8550,261.2612,0,U,57859,999,15964,-.20103E-5,-.419E-5,0
STARLINK-30272,2023-141W,2026-07-13T20:11:44.273760,15.31626565,.0001977,53.1590,57.3628,111.3138,248.8074,0,U,57860,999,15965,.12332E-2,.38011E-3,0
STARLINK-30432,2023-144A,2026-07-13T07:49:45.909984,15.27577633,.00011245,43.0023,295.5345,266.8965,93.1758,0,U,57864,999,15681,.24662923E-4,.417E-5,0
STARLINK-30427,2023-144B,2026-07-13T06:21:09.417312,15.27580048,.0000979,43.0022,295.9251,260.2069,99.8672,0,U,57865,999,15680,.43259E-4,.929E-5,0
STARLINK-30393,2023-144C,2026-07-13T07:38:39.465312,15.27579130,.0001764,42.9958,295.4603,175.4697,184.6171,0,U,57866,999,15681,.18456835E-4,.246E-5,0
STARLINK-30439,2023-144D,2026-07-13T08:00:52.053120,15.27587677,.00010457,43.0008,295.5849,236.8960,123.1791,0,U,57867,999,15686,.29849864E-3,.7963E-4,0
STARLINK-30442,2023-144E,2026-07-13T08:06:24.261984,15.27582529,.00010834,43.0027,295.5715,241.5545,118.5198,0,U,57868,999,15681,.31518327E-4,.605E-5,0
STARLINK-30441,2023-144F,2026-07-13T07:44:11.884128,15.27576923,.00011126,43.0031,295.4582,248.9971,111.0761,0,U,57869,999,15681,.59901664E-4,.1386E-4,0
STARLINK-30460,2023-144G,2026-07-13T14:26:44.274048,15.27583131,.0001482,43.0031,294.1567,265.8704,94.1978,0,U,57870,999,15690,.3605E-4,.73E-5,0
STARLINK-30444,2023-144H,2026-07-13T14:37:50.443104,15.27595303,.0001753,43.0033,294.2172,269.6698,90.3953,0,U,57871,999,15661,.33241E-3,.89E-4,0
STARLINK-30446,2023-144J,2026-07-13T13:28:31.503936,15.27596936,.0002305,43.0052,280.2275,288.0660,71.9941,0,U,57872,999,15678,-.99597E-4,-.3004E-4,0
STARLINK-30445,2023-144K,2026-07-13T14:32:17.473920,15.27582406,.0001328,43.0026,294.1887,247.7576,112.3135,0,U,57873,999,15685,.46215E-4,.101E-4,0
STARLINK-30447,2023-144L,2026-07-13T05:39:31.163904,15.27580797,.0001054,43.0012,270.4395,254.0944,105.9792,0,U,57874,999,15713,-.89085E-6,-.286E-5,0
